Organization Type,Name,name,Region,Country,City,Latitude,Longitude,Size,Type,Sector,Address,Description,Additional Details,Website,Email,,
Youth-led Co-ops,Agricultores Federados Argentinos S.C.L.,Cooperativa de producci�n,Americas,Argentina,Rosario,-32.9442426,-60.6505388,100+,Cooperativa de producci�n,Agriculture,Dto Educaci�n y Capacitaci� Mitre 1132 Rosario S2000COX Argentina,"AFA SCL es el mas fuerte originador de granos del pais, con una densidad logistica unica de mas de 140 plantas de servicio agropecuario.","Agricultores Federados Argentinos S.C.L. es la principal Cooperativa Agropecuaria de primer grado en Argentina y una de las m�s grandes y pujantes de Am�rica Latina. Los 36.000 Productores Asociados cuentan con una estructura compuesta por m�s de 1.600 empleados permanentes en 26 Centros Cooperativos Primarios, que sumados a los Sub-Centros, Oficinas y Representaciones permiten que la entidad tenga presencia arraigada en 130 localidades de 9 provincias Argentinas: Santa Fe, Buenos Aires, C�rdoba, Entre R�os, Santiago del Estero, Chaco, Salta, Tucum�n y San Luis. La inmensa extensi�n territorial genera un acopio del orden de las 5.000.000 de Toneladas anuales, una capacidad de almacenaje de 3.000.000 de Toneladas y una fuerte log�stica en transporte compuesta por m�s de 220 camiones propios. Esta extensa red permite brindar una diversa gama de servicios durante todo el a�o y otorgar a los Asociados importantes beneficios econ�micos y sociales. En los �ltimos a�os, en pos del crecimiento, la innovaci�n y la b�squeda de mayores beneficios para los Asociados, AFA S.C.L. prioriz� proyectos orientados al agregado de valor de la producci�n primaria, profundizando procesos de industrializaci�n de materias primas y de agroinsumos, como as� tambi�n generando nuevos servicios de acopio y comercializaci�n de productos especiales que ayuden a la diversificaci�n productiva de los Asociados.",http://www.afascl.com,jovenes@afascl.coop,,
Youth-led Co-ops,Coop. CASMUL,Cooperativa de producci�n,Americas,Honduras,"San Manuel, Cortes",15.3327467,-87.9187711,100+,Cooperativa de producci�n,Agriculture,"504 San Manuel, Cortes, Honduras","Mi coop. Es de producci�n, exportamos banano de primera a los Estados Unidos, sembrados palma africana la cual vendemos la fruta a una coop. Encargada de extraer el aceite y derivados.",,http://casmul.blogspot.com,n/a,,
Youth-led Co-ops,COOPAPRU,Agriculture,Africa,Democratic Republic of Congo,Bukavu,-2.5123017,28.8480284,0-5,Coop�rative de producteur.rice.s (dont agricole),Agriculture,"BP :274CYANGUGU/RWANDA, 1914BUKAVU, Democratic Republic of Congol","1. COOPAPRU Localisation : Avenue Mobutu, Quartier Mulira, Kamanyola Territoire de Walungu � 52 km de Bukavue. Date de Cr�ation : 11 f�vrier 2013. Membres : 9 � la cr�ation et actuellement 20 femmes dont 9 femmes. Capital social initial : - 20 parts sociales � 100 $ par personnes, soit 2 000 $ - Cotisations et adh�sions qui assurent le fonctionnement de la Coop�rative. Activit�s �conomiques (services rendus � la communaut�) : � Collecte et stockage, transformation et commercialisation du ma�s, haricot, manioc, et produits maraichers. � Chiffre d�affaire : 19 309 $ dont 1032 $ de fonds propre � la coop�rative � B�n�fices r�alis�s/an : 7 50 $","1. COOPAPRU Localisation : Avenue Mobutu, Quartier Mulira, Kamanyola Territoire de Walungu � 52 km de Bukavue. Date de Cr�ation : 11 f�vrier 2013. Membres : 9 � la cr�ation et actuellement 20 femmes dont 9 femmes. Capital social initial : - 20 parts sociales � 100 $ par personnes, soit 2 000 $ - Cotisations et adh�sions qui assurent le fonctionnement de la Coop�rative. Activit�s �conomiques (services rendus � la communaut�) : � Collecte et stockage, transformation et commercialisation du ma�s, haricot, manioc, et produits maraichers. � Chiffre d�affaire : 19 309 $ dont 1032 $ de fonds propre � la coop�rative � B�n�fices r�alis�s/an : 7 50 $ Charge : � Personnel : g�rante, manutentionnaires occasionnels � maintenance et assainissement de l�entrep�ts et conservation. � Fonctionnement/imprim�s. Principaux d�fis : � Baisse de la production suite aux al�as climatiques et maladies des plantes. � Taxe de la DGI � Qualit� de l�emballage des produits, � Contrainte � la visibilit�. Charge : � Personnel : g�rante, manutentionnaires occasionnels � maintenance et assainissement de l�entrep�ts et conservation. � Fonctionnement/imprim�s. Principaux d�fis : � Baisse de la production suite aux al�as climatiques et maladies des plantes. � Taxe de la DGI � Qualit� de l�emballage des produits, � Contrainte � la visibilit�.",n/a,fopsipaf@gmail.com,,
Youth-led Co-ops,Elikya Coop,Agriculture,Africa,Democratic Republic of Congo,Kisangani,0.5185303,25.2007728,0-5,Coop�rative de producteur.rice.s (dont agricole),Agriculture,"2022 Kisangani, Democratic Republic of Congol",Elikya Coop est une coop�rative des jeunes cr��e en novembre 2017 � Kisangani dans le souci d'encadrer et de former principalement les jeunes agriculteurs pour promouvoir l'�ducation et la sant� de ses membres et de la communaut� locale. La Coop�rative oeuvre principalement dans les milieux ruraux.,"Actuellement, notre coop�rative travaille dans le recensement des jeunes agriculteurs pour leur faire conna�tre notre coop�rative et surtout leur faire b�n�ficier des formations.",n/a,elikyacoop@gmail.com,,
Youth-led Co-ops,Centre d'Etude pour l'Am�nagement de l'Environnement D�favoris� (CEAED),Agriculture,Africa,Democratic Republic of Congo,Bukavu,-2.5123017,28.8480284,6-20,Coop�rative de producteur.rice.s (dont agricole),Agriculture,"Ville de Bukavu, Commune d'Ibanda, Quartier Nyawera, Avenue P.E Lumumba, Democratic Republic of Congol","Coop�rative �uvrant dans la production animale et v�g�tale, la p�che, l'am�nagement de l'environnement, ainsi que l�apiculture.","Domaines d'intervention: -Pisciculture (alevinage) -�levage (porc) -Apiculture (production du miel) -Agriculture (production du riz, haricot, et culture maraich�re)",n/a,ceaed_asbl@yahoo.fr,,
Youth-led Co-ops,CYED,Agriculture,Africa,Democratic Republic of Congo,Bukavu,-2.5123017,28.8480284,6-20,Coop�rative de producteur.rice.s (dont agricole),Agriculture,n/a,CYED produit de l'huile de Soja,,n/a,aureliekamole@gmail.com,,
Youth-led Co-ops,KUKURUKU Coop�rative,Agriculture,Africa,Democratic Republic of Congol,Bukavu,-2.5123017,28.8480284,6-20,Coop�rative de producteur.rice.s (dont agricole),Agriculture,"257 Cyangugu, Bukavu, Rwanda","KUKURUKU est une coop�rative agricole qui r�uini quelques jeunes de la ville de Bukavu et ses p�riph�rie et qui se centre sur l'�levage des diff�rente cat�gorie des poules, la ventes de celle-ci, la production et la vente des �ufs, la production de la nourriture des poules pour les membres et pour une partie de la population du Sud Kivu.",Nous cherchons aussi � relancer l��levage des poules dans nos village chez les parents et enfants pour encourager la scolarit� et combattre la mal nutrition chez les jeunes et dans nos village.,n/a,clovismitim@gmail.com,,
Youth-led Co-ops,Women Improvement Network,Agriculture,Africa,Ghana,Accra-Ghana,5.6037168,-0.1869644,0-5,Multi-stakeholder cooperative,Agriculture,n/a,Women Improvement Network is a youth oriented organization which provides training and education to women into agriculture as well providing advocacy on issues affecting women in the farming sector. It also solicits financial assistance for the women for farming activities.,Women Improvement Network provides self sustainable skills development programs for women who who have no jobs in rural communities. Our aim is to provide women who have no jobs some skills to enable them make a decent living. As a result a seminar and skills development training programs organised once every month to help the women take advantage of women development policies that have been formulated,n/a,ewpgighana@gmajl.com,,
Youth-led Co-ops,Naya Nepal Multipurpose Co-operative Ltd.,Agriculture,Asia-Pacific,Nepal,Nawalpur,27.8149251,85.6280697,0-5,Multi-stakeholder cooperative,Agriculture,"Devchuli-15, Pragatinagar Nawalpur, Gandaki Province, Nepal","This cooperative was established to empower its members and people around it by creating job opportunities and by supporting farmers with access to cheaper fertiliser, seeds, financial support, etc.",,n/a,nayanepalcooperative@outlook.com,,
Youth-led Co-ops,Malaq Maye Cooperative Institute,Agriculture,Africa,Somalia,Mogadishu,2.0469343,45.3181623,51-100,Multi-stakeholder cooperative,Agriculture,n/a,Malaq Maye Cooperative Institute is a multi-service cooperative offering full research and training/technical skill development in the areas of fishing and agribusiness.,Youth Fishing and Agri Business in Somalia,n/a,maye.mfa@gmail.com,,
Youth-led Co-ops,Bukavu Youth Agripreneurs (BYA),Agriculture,Africa,Democratic Republic of Congo,Bukavu,-2.5123017,28.8480284,0-5,Producer cooperative,Agriculture,"Av. Du Plateau No45 A, 3�me niveau", Q. Nguba," C. Ibanda/Bukavu-South Kivu, Democratic Republic of Congo (DRC)","AgriTech is an organization whose central objective is to respond, in quantity and quality, to the needs of rural and urban people in food production, for sustainable improvement to their health and financial situation. AgriTech provides training to youth in IT and agriculture because we believe that youth are the next generation to make this world a safer and better place to live.",,www.agritech.online,info@agritech.online
Youth-led Co-ops,Coopaeki,Agriculture,Africa,Democratic Republic of Congo,Bukavu,-2.5123017,28.8480284,0-5,Producer cooperative,Agriculture,"territoire de Walungu, Mushinga,,
Bukavu +243",Coop�rative Agro-ecologique du Kivu is a farm cooperative promoting coffee production and marketing,The coop was created in 2015 and have more than 500 members at the moment .It operates within 2 territories ( Mwenga and Walungu),https://www.facebook.com/coopaeki/,n/a,,
Youth-led Co-ops,MaraGrow Initiative CBO,Agriculture,Africa,Kenya,Vihiga,0.0815877,34.7229347,0-5,Producer cooperative,Agriculture,n/a,We produce healthy organic food for low income individuals.,,n/a,maragrowinitiative@gmail.com,,
Youth-led Co-ops,Abur Lango Farmers' Cooperative Society Ltd,Agriculture,Africa,Uganda,Kampala,0.3475964,32.5825197,0-5,Producer cooperative,Agriculture,n/a,"Abur Lango Farmers Cooperative Society Ltd. is a youth-led cooperative registered with the Ministry of Trade and Industry. We have more than forty fully paid members, the majority being youth because it was founded by youth.",It was founded in the year 2016 by a few young people who were ambitious in the business of agriculture. It remains the most active youth cooperative engaged in cassava production.,https://www.facebook.com/pages/category/Community-Organization/Abur-Lango-farmers-cooperative-society-Ltd-198619880938327/,alfco@gmail.com,,
Youth-led Co-ops,Youth Agriculture Cooperative,Agriculture,Africa,Somalia,Mogadishu,2.0469343,45.3181623,21-50,Producer cooperative,Agriculture,"UDHIS Building, Waberi District, Syl Street, P.O. BOX 48-BN-09010, Mogadishu, Somalia",We are a youth agricultural cooperative that aims to encourage youth to cultivate their farms in order to generate agricultural production that will play a role in food security (zero hunger) in my country.,"Youth Agriculture Co-operative is one of the co-operatives dedicated to serve their community farmers after the civil war collapsed all the country's infrastructure, who committed to assist farms in develop poor agriculture. YAC is Founded in 2016, that goals Youth agriculture empowerment, education progressing whether in the urban or rural . YAC put special spotlight on operational beside youth to help their needs and developing agriculture tools.",www.udhisom.so,coop.dev@udhisom.so,,
Youth-led Co-ops,Master Minds Producer Co-operative Society,Agriculture,Africa,Botswana,Kweneng District,-23.8367249,25.2837585,6-20,Producer cooperative,Agriculture,"Po Box 31759 Serowe, Molepolole, Kweneng District, Botswana","After being unemployed graduates, we grouped ourselves as friends to find ways to put food on the table. We then went for training at the Cooperative Center and registered a producer cooperative as we saw a niche in the market. After registration, we made sure we attended a practical course/incubation programme that trained us on Hydroponics. We learnt and practiced all production methods of farming, especially in horticulture. All members of the cooperative are employees in the cooperative exercising our value chain to implement and execute different duties in the farm and the whole administration of our cooperative.","It is made up of 10 youth who all have skills and training in agriculture and other areas like entrepreneurship, business management, financial literacy, software and network engineering, and marketing.",https://www.facebook.com/MasterMindsCoop/,mastermindscoop@gmail.com,,
Youth-led Co-ops,Camgrain,Agriculture,Europe,Italy,Rome,41.9027835,12.4963655,6-20,Producer cooperative,Agriculture,n/a,n/a,,n/a,camgrain.coop@coop.coop,,
Youth-led Co-ops,Sleep Fish Farmers Cooperative,Agriculture,Africa,Nigeria,Warri,5.5543995,5.7932008,6-20,Producer cooperative,Agriculture,n/a,Alero cooperative is primarily focused on aqua-culture and all things relating to agriculture at large.,,n/a,n/a,,
Youth-led Co-ops,Integrated Farmers cooperative union,Agriculture,Africa,Uganda,"Butaleja, Eastern Uganda",0.8474922,33.8411288,6-20,Producer cooperative,Agriculture,P. O. Box 117 Mbale,"Integrated farmers cooperative union was founded close to two years ago, according to the Ugandan statutes, it is the period required for registration to be effected, Myself together with some friends looked at the continued exploitation farmers were facing being fleeced by middlemen, and felt enough was enough. All profits were being taken away yet rice farming was a had task given the rudementary nature of equipment farmers were using. First thing was have farmers purchase their rice and look for market and sell at a better price, this would come in handy to solve the buffer stock impediment as well as having a stabilisation fund . We have grown to 3,000 farmers this mostly comprises of youth Uganda being the youngest nation in the world and women or young mothers. Our goals is not only to end at looking for better prices but to be able in future to use by products of these produce to do value addition chain, in production of feeds for animals, produce soft boards for construction, use rice husks to improve on the environment by producing energy for homes and industries , this will reduce on deforestation as fire word is the main source of energy for cooking. We feel this will spiral employment in 1. Animal husbandry agribusiness 2. Save the environment 3. Improve incomes to better living standards 4. Have affordable source of energy to power small scale cottages 5. Improve health and education standards since people can afford to pay And many others. Our conviction is cooperative is the way to go.","Integrated farmers cooperative union is located in Eastern Uganda, Butaleja District, Himutu subcounty, Nalusaga Township",n/a,npwalekwa@gmail.com,,
Youth-led Co-ops,Tunisie Coop,Agriculture,Africa,Tunisia,Ariana,36.8665367,10.1647233,0-5,Coop�rative de consommateur.rice.s,Agriculture,"15 Rue Hassen Ibn Noaman Menzeh 7, Ariana, 2037 ,Tunisie",Coop�rative de consommation pour promouvoir circuit court agriculteurs consommateurs.,mieux consommer ensemble pour une agriculture durable,www.tunisie-coop.tn,tunsie.coop@gmail.com,,
Youth-led Co-ops,Swaziland National Youth Cooperative Alliance,Apex Co-op,Africa,Swaziland,Manzini,-26.5081999,31.3713164,0-5,Multi-stakeholder cooperative,Apex Co-op,"P.O. Box 4854, Manzini, M200, Swaziland",ESNYCA is an apex body for youth coops in Eswatini.,,n/a,n/a,,
Youth-led Co-ops,Naya Nepal Multi-purpose Co-operative Society Ltd,Apex Co-op,Asia-Pacific,Nepal,Kakarvitta,26.646384,88.1559741,100+,Multi-stakeholder cooperative,Apex Co-op,"Mechinagar-6, Kakarvitta, Jhapa, Nepal",The Nepal Multi-purpose Co-operative Society Ltd (NNCCOOP) was established in 1994. It is a leading co-operative in our country which is not only doing its own business but also leads the overall cooperative movement here.,,http://www.ica-ap.coop/AboutUs/nepal-multipurpose-central-co-operative-union-ltd-nemccu,nemccu@gmail.com,,
Youth-led Co-ops,KOPINDO,Apex Co-op,Asia-Pacific,Indonesia,Jakarta,-6.2087634,106.845599,6-20,Multi-stakeholder cooperative,Apex Co-op,"Lapangan Roos Raya 52 / IV Street, Selmis Office Tebet, South Jakarta, Indonesia","Koperasi Pemuda Indonesia (KOPINDO) was born in 1981, is a federation of youth cooperatives. Our membership consists of about 129 youth cooperatives over the entire country, spread over 12 provinces.",,Kopindo.net,kopindo1981@gmail.com,,
Youth-led Co-ops,Co-operative Alliance of Kenya,Apex Co-op,Africa,Kenya,Nairobi,-1.2920659,36.8219462,6-20,Multi-stakeholder cooperative,Apex Co-op,"27162-00100 Nairobi, Kenya",Apex cooperative in Kenya,,www.cak.coop,info@cak.coop,,
Youth-led Co-ops,Ogun State Cooperative Federation Ltd.,Apex Co-op,Africa,Nigeria,"ASERO, ABEOKUTA, OGUN STATE, NIGERIA",7.174138,3.3786668,21-50,Work and employment cooperative,Apex Co-op,"Asero, Abeokuta, P.M.B. 2166, Sapon, Abeokuta, Ogun State, Nigeria","In 1952, all Cooperative Associations in the old Western Region came together and formed an Apex body which was known as the Cooperative Union of Western Nigeria (CUWN). In 1976, as a result of political re-organization in Nigeria, the Western Region was divided into three states namely Oyo, Ogun, and Ondo States, thus the need for the newly created states to form and establish their own cooperative unions. This exercise gave birth to the Cooperative Union of Ogun State Limited in 1976 (COUSON), now Ogun State Cooperative Federation Limited (OGSCOFED). It was created to serve as an umbrella union for all registered cooperatives and unions in the state. It is devoted to the advancement of economic democracy through cooperation.","OGSCOFED Limited performs these functions: 1. Auditing of books and records of all Cooperative organization in Ogun State, Nigeria. 2. Promotion and extension of Cooperative businesses. 3. Propaganda and Education 4. Public Relation 5. Service to Cooperative farmers 6. General welfare of the Cooperative Movement. 7. Sponsorship of new ventures. 8. Representation of Cooperative interests both internally and at International level etc.",https://www.facebook.com/pages/Ogun-State-Cooperative-Federation-Ltd/221544601347350,ogscofed@yahoo.co.uk,,
Youth-led Co-ops,Stater Saving and Credit Coop SL,Banking / credit unions,Africa,Ethiopia,Addis Abeba,8.9806034,38.7577605,0-5,Final consumer/user cooperative,Banking / credit unions,"PO Box 20869, Addis Abeba, Ethiopia","Stater Saving and Credit Cooperative Society is a community based financial service provider, founded in the capital city Addis Ababa, Ethiopia in 2016. The coop was registered as legal entity on September 2016 by 150 founder members.",,n/a,kidanunion@gmail.com,,
Youth-led Co-ops,Lagos State Youth Cooperative Society (LASYCOOP),Banking / credit unions,Africa,Nigeria,Lagos,6.5243793,3.3792057,0-5,Final consumer/user cooperative,Banking / credit unions,"Lascofed Building, Plot 6, Isaacstan Close, off Wempco Road, Ogba Industrial Scheme, Ogba, Ikeja, Lagos State, Lagos, Nigeria","The Lagos State Youth Cooperative Society is affliated with the Nigerian Youth Cooperative Network, which is the umbrella body for youth coops in Nigeria. We are into thrift and credit, coupled with some investment activities which has had value and bettered the lives of members.",,n/a,youthincoops@yahoo.com,,
Youth-led Co-ops,Campus Credit Multi-Purpose Cooperative Society,Banking / credit unions,Africa,Nigeria,Abraka,5.7894321,6.1023468,6-20,Final consumer/user cooperative,Banking / credit unions,"Post Graduate Class (Campus 1) Institute of Education, Delta State University, P .M. B 1, Abraka Delta State, Nigeria","CampusCredit Cooperative Society is a student-owned/driven consumer cooperative which originated from an idea by a group of post-graduate students in the Institute of Education, Delta State University, Abraka. The goal is to engineer trade systems on campuses that will enhance students' financial well-being which in turn improves students' academic performance.",Our strategy is simple: Harness students purchasing power through benefits associated with economies of scale", drive financial inclusion through promotion of the cooperative business enterprise," and enhance financial literacy amongst students through research-driven fInancial lIteracy counseling programs.,www.campuscredit.coop,team@campuscredit.coop
Youth-led Co-ops,Kiambu Inua Maisha SACCO,Banking / credit unions,Africa,Kenya,Nairobi,-1.2920659,36.8219462,0-5,Multi-stakeholder cooperative,Banking / credit unions,"Kiambu Inua Maisha SACCO, PO Box 594 Kiambu.",Iour Sacco is a small but potential in growth. It has 1023members. With modest share holding of 500 each. Enrollment as a new member has a registration fee of 500 Kenya shillings .mothly minimum deposit is Lena shillings 500.00 .,,n/a,kiambusacco@yahoo.co.ke,,
Youth-led Co-ops,Orapa Saccos,Banking / credit unions,Africa,Botswana,Orapa,-21.3119942,25.4022706,6-20,Multi-stakeholder cooperative,Banking / credit unions,n/a,n/a,,n/a,n/a,,
Youth-led Co-ops,Savings and Credit Co-operative,Banking / credit unions,Africa,Zambia,Lukulu,-14.4076036,23.2587992,6-20,Multi-stakeholder cooperative,Banking / credit unions,"Box 95006, Mitete, Kukulu, Zambia","Our Savings and Credit Co-operative Society is one of it's kind in a newly created district of Mitete. It seeks to create rural financial markets and brings on board the unbankable rural community. It has an overall objective of lowering the cost of finance, and encouraging residents to save more in preparation for uncertainties. It also aims to diversity into agricultural production, processing and marketing by engaging in the cashew nut industry.",We have a clear cut vision of becoming a leading SACCO in the western province of Zambia. Our team has built a standard set of skills in credit management and financial literacy capacity building strategies.,n/a,kasangabetrum@gmail.com,,
Youth-led Co-ops,Primary Agriculture Cooperative,Banking / credit unions,Asia-Pacific,India,Bilaspur,22.0796251,82.1391412,100+,Producer cooperative,Banking / credit unions,n/a,This is the dstrict central cooperative bank of Bilaspur.,,n/a,n/a,,
Youth-led Co-ops,Ditswammung SACCO,Banking / credit unions,Africa,Botswana,Gaborone,-24.6282079,25.9231471,0-5,Work and employment cooperative,Banking / credit unions,Private Bag 0074 Airport Road Block 8 Gaborone Botswana,n/a,,n/a,n/a,,
Youth-led Co-ops,Albayan Cooperative Investment and Credit Society,Banking / credit unions,Africa,Nigeria,Ibadan,7.3775355,3.9470396,0-5,Work and employment cooperative,Banking / credit unions,n/a,Interest free society,,n/a,n/a,,
Youth-led Co-ops,Atwima Cooperative Credit Union,Banking / credit unions,Africa,Ghana,Kumasi,6.6666004,-1.6162709,6-20,Work and employment cooperative,Banking / credit unions,"Box ks 8527, Adum -Kumasi (location Esaso off Barekese road near Adankwame,,
Kumasi, Ghana +233",Atwima Cooperative Credit Union is a cooperative that provides credit facilities to the youth who able to present a prolific business plan that needs financing.,Atwima Cooperative Credit Union currently operates in mainly seven different towns in the Ashanti Region of Ghana and looks forward to extending it's operation to the whole district of Atwima Nwabiagya.,https://www.facebook.com/Atwima-Co-operative-Credit-Union-1334897353192610/,atwimaco.operative@gmail.com,,
Youth-led Co-ops,Ovoke Thift and Credit Coop,Banking / credit unions,Africa,Nigeria,Abuja,9.0764785,7.398574,6-20,Work and employment cooperative,Banking / credit unions,n/a,My coop is a credit coop that helps people who need credit.,Cooperative members contribute according to their income.,n/a,ovokebaby@gmail.com,,
Youth-led Co-ops,Ibanda Smart Agro Savers Savings and Credit Ltd,Banking / credit unions,Africa,Uganda,Ibanda,-0.096489,30.5739579,6-20,Work and employment cooperative,Banking / credit unions,n/a,ISAS SACCO is savings and credit society that is mobilising savings among the youths and other people in the rural and semi-urban areas of uganda and turn those savings into micro and small loans to members. We inculcate the culture of saving in our members while training them in enterprise management where they identify profitable enterprises of their choice and borrow from their SACCO to fund their business ideas.,ISAS SACCO started as a youth saving group in 2012 and officially registered under the Ugandan laws with ministry of Trade and Cooperatives in 2015. By the year 2017 we had an accumulated member saving of more than 100 million shillings with a membership of more than 200 people 60% of whom are below the age of 32.,n/a,amuhandiki@gmail.com,,
Youth-led Co-ops,Kenya Medical Association SACCO,Banking / credit unions,Africa,Kenya,Nairobi,-1.2920659,36.8219462,n/a,Work and employment cooperative,Banking / credit unions,"KMA Sacco P.O Box 413-00202 Nairobi, Kenya",In 1998 the Kenya Medical Association SACCO (KMA SACCO) was registered as a Savings and Credit Co-operative Society to offer financial services to KMA members.,,www.kmasacco.com,info@kmasacco.com,,
Youth-led Co-ops,Asociada a Coopcarvajal y empleada a Coofipopular,Cooperativa de m�ltiples actores,Americas,Colombia,Cali,3.4516467,-76.5319854,21-50,Cooperativa de m�ltiples actores,Banking / credit unions,"Calle 29 Norte 6AN - 40 Santa M�nica, Cali, Colombia","Es la cooperativa de los empleados de Carvajal, se enfoca en ahorro y cr�dito, dan auxilios de salud y de educaci�n.","Es una Cooperativa muy completa, enfocada en mejorar la calidad de vida de los asociados",coopcarvajal.com,n/a,,
Youth-led Co-ops,Coopnazonaf,Cooperativa de m�ltiples actores,Americas,Dominican Republic,Santo Domingo,18.4860575,-69.9312117,21-50,Cooperativa de m�ltiples actores,Banking / credit unions,"Avenida Abrahan Lincoln, Plaza Castilla, local 5t , 3er nivel, Santo Domingo, Dominican Republic","Cooperativa de ahorro,credito y servicios multiples de los trabajadores de zona franca.",Estamos emprendiendo en el sector turistico y empresas privadas.,www.coopnazonaf.com,info@coopnazonaf.com,,
Youth-led Co-ops,Cooperativa Ahorro y Credito Herrera (COOP-HERRERA),Cooperativa de m�ltiples actores,Americas,Dominican Republic,Santo Domingo Oeste,18.4888797,-70.0086306,51-100,Cooperativa de m�ltiples actores,Banking / credit unions,"Ave. Isabel Aguiar No. 235, Herrera, Municipio Santo Domingo Oeste, Provincia Santo Dominigo, Republica Dominicana","La Cooperativa Herrera es una empresa de car�cter socio econ�mico, abierta a la comunidad, cuyo funcionamiento est� basado en los Principios Cooperativos, los cuales se fundamentan en la filosof�a de cooperaci�n y sus valores esenciales de igualdad, equidad, pluralidad, mutualidad y auto-ayuda.","SERVICIOS QUE OFRECEMOS 1. Cuentas Ahorros. � Ahorros Retirables � Aportaciones � Cosecha de Oro � Cuentas Infantiles � Ahorros Programados � Ahorros por N�mina 2. Cr�ditos / Pr�stamos. � L�nea de Cr�dito � Pr�stamos a Micro y Medianas Empresas � Pr�stamos Personales � Pr�stamos Estudiantiles y/o Pasant�as � Pr�stamos Hipotecarios � Pr�stamos para Turismo y Recreaci�n � Pr�stamos para Veh�culos � Pr�stamos de Salud � Pr�stamos Escolares 3. Seguros. � Seguro M�dico Humano � Seguros de Salud � Seguros para Autom�viles � L�neas aliadas (viviendas, robos, incendios, terremotos, etc.) � Seguro Escolar 4. Servicios Especiales. � Remesas nacionales e internacionales � Amparo Familiar � Planes Funerarios � Feria de Electrodom�sticos � Planes de Viviendas 5. Medios Electr�nicos de Pagos. � Tarjeta de D�bito � N�minas Electr�nicas � Administraci�n de n�mina y empleados 6. Otros. � Pago de servicios de agua, energ�a el�ctrica, tel�fono, cable, basura, impuestos, pago Tarjeta de Cr�dito, seguros... � Todo Pago. Responsabilidad Social COOP-HERRERA: � Centro Atenci�n Integral Familias Inteligentes (CAIFI) con acci�n gratuita de Salud Mental. � Educaci�n, formaci�n e informaci�n sobre Cooperativismo. � Educaci�n Financiera. � Programas de Emprendimiento y Empoderamiento para Juventud y Mujer. � Programas Din�micos Cultura Ahorro Infantil � Dimensi�n de Identidad Cultural, Recreativa y Sostenibilidad del Medio Ambiente y Biodiversidad.",www.coopherrera.com,info@coopherrera.com,,
Youth-led Co-ops,Ej�rcito Comunicacional de Liberaci�n,Cooperativa de m�ltiples actores,Americas,Venezuela,Caracas,10.4805937,-66.9036063,0-5,Cooperativa de m�ltiples actores,Communications,"av. Lecuna, cr. Parque Central, edif. Caroata, nivel ofic 2, oficina 209, Caracas, Venezuela",El ECL es una una cooperativa de productores culturales multidisciplinarios de Venezuela.,"El Ej�rcito Comunicacional de Liberaci�n somos un colectivo de productorxs culturales en distintos campos de la comunicaci�n, la creaci�n de contenidos, la investigaci�n y la propaganda. Nuestro trabajo cooperativo e interdisciplinario apunta a la exploraci�n de est�ticas, lenguajes y herramientas para generar reflexiones sobre los dispositivos de dominio, y desencadenar procesos de empoderamiento colectivo. Asimismo, avanza a la coordinaci�n de acciones, v�nculos y horizontes con otros colectivos, de distintos �mbitos de la producci�n y la organizaci�n popular, especialmente en Venezuela y Nuestram�rica.",www.ecl.com.ve,grafico@ecl.com.ve,,
Youth-led Co-ops,Intergalactic,Cooperativa de producci�n,Americas,Uruguay,Montevideo,-34.9011127,-56.1645314,0-5,Cooperativa de producci�n,Communications,"11800 Montevideo, Uruguay","Intergalactic es una productora audiovisual cooperativa, resolvemos necesidades de comunicaci�n por medio de la realizaci�n de piezas audiovisuales. Nos encargamos del desarrollo de conceptos, pre-producci�n, producci�n, post-producci�n y distribuci�n. Orientamos nuestros servicios a la excelencia y a la mejora permanente. El trabajo en equipo y la calidad de nuestro producto final es la meta principal. Nuestros principales productos son piezas audiovisuales de"," animaci�n, institucionales y publicidad. Adem�s desarrollamos contenido de ficci�n independiente (largometrajes, cortometrajes) y documental, en co-producci�n con terceros.","Creemos firmemente que la producci�n audiovisual reviste de una importancia significativa para cualquier pa�s soberano, dado su potencial para la promoci�n de la imagen del mismo para s� como para el exterior. Asimismo, es de suma relevancia para la econom�a en su conjunto, no s�lo por generar servicios y productos de alto valor agregado con mano de obra calificada de diversas disciplinas, sino tambi�n por generar encadenamientos con otros sectores a trav�s de demanda por servicios gastron�micos, alojamiento, transporte, vestuario. Estos servicios generan una red de exportaciones competitivas muy amplia. Parte de la demanda que la empresa logra satisfacer es aportando a la imagen audiovisual en el movimiento cooperativo. Esforz�ndonos siempre por alcanzar productos de alta calidad, acompasados con los est�ndares globales de comunicaci�n.",www.intergalactic.uy,contacto@intergalactic.uy,
Youth-led Co-ops,Mecha,Cooperativa de producci�n,Americas,Venezuela,Caracas,10.4805937,-66.9036063,6-20,Cooperativa de producci�n,Communications,"1015 Parque Central, edificio Caroata, nivel de Oficinas 2, oficina 209, san Agust�n, Caracas, Venezuela","Somos un equipo de productores de contenido multiformato, dedicados a comunicar ideas, miradas e historias por distintos medios.","Combinamos las posibilidades t�cnicas de la animaci�n 2D y 3D, las interfaces interactivas y el dise�o editorial, con las herramientas metodol�gicas y creativas del arte, la literatura y las ciencias sociales, para generar productos comunicacionales y sistemas de seguridad innovadores y efectivos. En nuestros nueve a�os de experiencia como equipo de trabajo, hemos apuntado a explotar las posibilidades de la comunicaci�n (audio)visual y digital, para acompa�ar procesos de formaci�n colectiva, preservaci�n cultural y medioambiental, y mejora en la calidad de vida de los seres humanos.",http://mecha.pro,hola@mecha.pro,,
Youth-led Co-ops,Cooperativa de Trabajo ASUMA Ltda.,Cooperativa de trabajo y empleo,Americas,Argentina,Ciudad de Buenos Aires,-34.6036844,-58.3815591,6-20,Cooperativa de trabajo y empleo,Environmental,"Uriarte 1265, CP 1414, Ciudad Aut�noma de Buenos Aires, Argentina","Somos Arquitectxs, Dise�adores Industriales, Ambient�logos y Dise�adores Gr�ficos. Hacemos proyectos: desde Cestos separadores y Compostadoras Comunitarias hasta barrios sustentables completos. Trabajamos en formatos de dise�o participativo con Cooperativas de Vivienda, escuelas, Bibliotecas populares, Recuperadores Urbanos, Villas de emergencia y asentamientos, Productores hort�colas entre otros. Realizamos consultoria t�cnico-ambiental: desde evaluaciones de impacto ambiental, planes de manejo de recursos naturales. Y asesoramos t�cnicamente a empresas constructoras, municipios, y entes de ejecuci�n en general, brindando talleres de inspecci�n de obra, redacci�n de pliegos de especificaciones t�cnicas, elaboraci�n de documentaci�n legal-t�cnica para la licitaci�n y ejecuci�n de obras. Brindamos talleres ambientales: Desde una perspectiva interdisciplinaria e integral, a todo tipo de organizaci�n, ONG, empresas y municipios. Abordamos problem�ticas ambientales situadas en los territorios desde la participaci�n y el dialogo de saberes.","Tenemos 3 �reas de actuaci�n: -T�cnica -Comunidad -Proyectos estrat�gicos / Ecolog�a Aplicada Las tres �ereas se relacionan y no pueden funcionar sin la otra. Nos permite trabajar a diferentes escalas y complejidades sin perder nuestros objetivos esenciales. Trabajamos asesorando organizaciones sociales y gobiernos locales en diversos campos asociados a la sustentabildad, en particular lo referido a tratamiento de residuos, vivienda sustentable, escuelas y equipamiento comunitario, tanto en su fase de dise�o y direcci�n de obra como del asesoramiento, consultor�a y capacitaci�n desde planes de manejo, puesta en marcha y seguimiento.",www.grupoasuma.com,contacto@grupoasuma.com,,
Youth-led Co-ops,ERSE - Ecological Research and Services for the Environment - soc. coop. s.t.p.,Environmental,Europe,Italy,Viareggio,43.8657267,10.2513103,0-5,Work and employment cooperative,Environmental,"Via Aurelia Sud 291, 55049 Viareggio (LU), Italy","ERSE realizes environmental monitorings to analyze flora and fauna in terrestrial, marine and fluvial ecosystems (Environmental Impact Assessment, Action Plans for Nature Conservation, etc.)","ERSE also works to offer scientific experiences in Citizen Science projects for adult and young people, to improve the cooperation between Civil Society and Scientific World.",www.erseambiente.it,erse@erseambiente.it,,
Youth-led Co-ops,K/South Huru Huduma SACCO,Environmental,Africa,Kenya,Nairobi,-1.2920659,36.8219462,0-5,Final consumer/user cooperative,Environmental,n/a,"Ksouth huru huduma sacco is part of the kenya government initiative under national youth service that identified jobless youths in the city and provided them with environmental jobs such as cleaning the roads,unblocking trenches,garbage collection,sweeping etc.The wages earned by inidivuals were then pulled into one sacco thereby enabling the youths to engage in saving and borrowing of loans.The idea was to encourage the youths in our neighbourhood to engage in entrepreuniral activities,start business and watch them grow and be sustainable.We have several success stories from different youths who have set up successful business personally i have been able to set a container space business which involves renting our spaces on partioned shipping containers.I collect rents from the business stalls and i thank the government for providing the environment programme to the youths in my neighbourhood.Others have set up barbershops,saloon,clothing design shops etc",we are a youth based sacco of very very vibrant young men and women from the low income neighbourhoods in nairobi kenya,n/a,ksouthhuruhuduma@gmail.com,,
Youth-led Co-ops,Northfield Curbside Compost Cooperative,Environmental,Americas,United States,"Northfield, Minnesota",44.4582983,-93.161604,0-5,Work and employment cooperative,Environmental,"308 St. Olaf Avenue, Northfield, MN, 55057","We collect compostable waste (organic waste like food scraps, paper products, etc.) from residents and businesses in Northfield and deliver them to a composting site where that waste is turned into soil. We also do education in schools, businesses, churches, and other establishments about what compost is and why its important.","We have over 400 household subscribers to our business and currently 4 institutions/ business subscribers that we collect compost from on a weekly basis. We are successfully reducing the amount of waste traveling to the landfill in our county by providing this needed service to our community. We hope to grow into a collection service utilized by our whole town and neighboring towns, and to process the compost locally so that we can provide good soil to our farmers, gardeners, and landscapers in our area.",https://www.northfieldcompost.com/,northfieldcomposting@gmail.com,,
Youth-led Co-ops,ETICAE - Stewardship in Action,Environmental,Europe,Italy,Frosinone,41.6576528,13.6362715,0-5,Cooperativa di lavoro,Environmental,"Via Casilina Nord 151, 03100 Frosinone, Italia","Nata nel 2014, ETICAE � Stewardship in Action � una cooperativa di servizi che si occupa di consulenza e formazione sulla responsabilit� sociale d�impresa e sostenibilit�.","ETICAE � Stewardship in Action � la prima societ� italiana a offrire servizi di consulenza e formazione sulla stewardship. Grazie ad una partnership con l'associazione European Water Stewardship, � anche l�unica societ� italiana a fornire servizi di consulenza per l�ottenimento della certificazione sulla gestione etica delle risorse idriche (water stewardship). Oltre alla stewardship, ETICAE � Stewardship in Action offre servizi che spaziano dalla rendicontazione sociale, alla certificazione etica SA8000 sino alla progettazione architettonica sostenibile. ETICAE � Stewardship in Action nasce nel 2014 come braccio operativo di Stewardship Associazione Italiana per la gestione etica delle risorse (""Stewardship Italia""). ETICAE - Stewardship in Action � associata a Legacoop Nazionale. La Presidente, Annalisa Casino, � membro di Direzione di Legacoop Lazio e membro della Presidenza Legacoop Produzione e Servizi. Inoltre, i soci di ETICAE - Stewardship in Action partecipano attivamente a Generazioni Legacoop attraverso il coordinamento regionale Generazioni Legacoop Lazio. Da maggio 2018, ETICAE - Stewardship in Action � socia di Banca Etica.",www.eticae.it,info@eticae.it,,
Youth-led Co-ops,"Ekobideak Koop, elk.txikia",Cooperativa de producci�n,Europe,Spain,Bilbao,43.2630126,-2.9349852,0-5,Cooperativa de producci�n,Environmental,"Avenida Zuberoa 12, 4�Drcha, Bilbao, Spain","En Ekobideak nos dedicamos al geoturismo y a la educaci�n ambiental mediante la elaboraci�n de productos y servicios destinados a la concienciaci�n, difusi�n e implantamiento de las ciencias de la Tierra.","Entre nuestros servicios est�n charlas, talleres y salidas de campo. Nuestros productos en cambio tienen una mayor amplitud: tematizaci�n de itinerarios, desarrollo de mapas (f�sicos y digitales), elaboraci�n de inventarios de elementos de inter�s, bases de datos...pod�is encontrar m�s en nuestra p�gina web.",https://www.ekobideak.com/,ekobideak@gmail.com,,
Youth-led Co-ops,Magnesium,Cooperativa de trabajo y empleo,Americas,Uruguay,Montevideo,-34.9011127,-56.1645314,0-5,Cooperativa de trabajo y empleo,Freelancer,"Av. Gonzalo Ram�rez 1676, Montevideo, Montevideo 11200, UY","Magnesium es una cooperativa especializada en tecnolog�a cuyo rubro principal es el desarrollo de software a medida, con foco en proyectos con un fuerte componente de investigaci�n cientifica.","Disfrutamos construyendo soluciones desafiantes de forma �gil y eficaz, creemos que la calidad y las mejores pr�cticas de la ingenier�a deben ser puestas al servicio de nuestros clientes, acompa�ando los procesos de negocio y contribuyendo a su mejora. Somos un equipo con diversos perfiles y variada experiencia en diferentes proyectos y tecnolog�as.",magnesium.coop,info@magnesium.coop,,
Youth-led Co-ops,Eyemoles Arts and Technology Co-operative,Freelancer,Americas,Canada,Vancouver,49.2827291,-123.1207375,6-20,Work and employment cooperative,Freelancer,"3173 East 22nd Avenue, Vancouver, British Columbia, Canada","Eyemole Arts and Technology Co-operative makes digital media and other services by bringing together professionals in the tech sector, social-impact investors, and values-aligned clients.","Eyemole Arts and Technology Co-operative, is� guess what� an arts and technology co-operative. What that means is we cook up projects, services, and digital platforms that address inequality in our economies in one form or another. We think that alternatives are necessary to redistribute the wealth created by our hearts, minds, and hands so that the lion's share doesn't simply end up in the pockets of the few and becomes the moles� share instead.",eyemole.io,hello@eyemole.io,,
Youth-led Co-ops,Nottingham Student Housing Co-operative,Housing,Europe,UK,Nottingham,52.9547832,-1.1581086,0-5,Final consumer/user cooperative,Housing,"55 Robinet Road, Beeston, Nottingham, NG9 1GP, England, UK",We are a student housing co-operative for students living in the Greater Nottingham Area.,"We are a member of Students for Cooperation (SFC) and their recent project, just launched, called Student Co-operative Homes (SCH).",http://www.students.coop/,nottinghamstudenthousingcoop@gmail.com,,
Youth-led Co-ops,Castlegreen Housing Coooperative,Housing,Americas,Canada,"Thunder Bay, Ontario",48.3808951,-89.2476823,6-20,Final consumer/user cooperative,Housing,"213 Castlegreen Drive, Thunder Bay, Ontario, Canada, P7A 7W4","Castlegreen Housing Cooperative is comprised of 215 housing units in town homes in Thunder Bay, Ontario. Units range from one bedroom accessible units all the way up to four bedroom two storey units. With around 500 members living in the co-operative, community is strong in Castlegreen and neighbours always look out for eachother.",,http://www.castlegreen.on.ca,sarahkejensen@gmail.com,,
Youth-led Co-ops,Waterloo Co-operative Residence Inc,Housing,Americas,Canada,Waterloo,43.4642578,-80.5204096,6-20,Final consumer/user cooperative,Housing,"268 Phillip St., Waterloo, Ontario, Canada, N2L 6G9","Waterloo Co-operative Residence Inc (WCRI) is a 50+ year old student housing co-op in Waterloo, ON that provides housing to post-secondary students in the region. WCRI has 800+ beds, operates on a non-profit basis, and currently undergoing expansion.",,www.wcri.coop,president@wcri.coop,,
Youth-led Co-ops,Simaki Housing Co-operative Society Ltd.,Housing,Africa,Kenya,Nairobi,-1.2920659,36.8219462,0-5,Multi-stakeholder cooperative,Housing,"P.O BOX 28303 - 00200 Nairobi, Kenya",Simaki Housing Co-operative started as a welfare group of youths drawn from friends.,,n/a,simakiwelfare@gmail.com,,
Youth-led Co-ops,Karachi Cooperative Housing Socities Union Ltd. (Youth Cooperative Wing of Pakistan Program),Housing,Asia-Pacific,Pakistan,Karachi,24.8607343,67.0011364,21-50,Multi-stakeholder cooperative,Housing,"144 Justice Inamullah Rd, Karachi Memon Society PECHS, Karachi, Karachi City, Sindh, Pakistan",Housing cooperative that provides low cost housing by acquiring land from the government.,"Interested to know about it our selves, where are the youth located.",https://www.facebook.com/ycwpakistan/,kcshunionltd@live.com,,
Youth-led Co-ops,Cooperativa de Vivienda La Creciente,Cooperativa de consumo / usuario final,Americas,Argentina,Rosario,-32.9442426,-60.6505388,0-5,Cooperativa de consumo / usuario final,Housing,"2000 Rosaeio, Argentina","Es una Cooperativa de Vivienda por Ayuda Mutua y Propiedad Colectiva, experiencia piloto en Rosario que viene a dar una nueva forma conquistar derechos en una ciudad marcada por la especulaci�n inmobiliaria.","Estamos construyendo, inspir�ndonos en la tradici�n de nuestra clase, para lograr sus derechos postergados, se basa en principios b�sicos de Ayuda Mutua, Autogest�on y Propiedad Colectiva. Nacimos en el 2012 cuando organizamos una jornadas de h�bitat popular mostrando la experiencias de FUCVAM y del Movimiento de Ocupantes e Inquilinos, del que actualmente formamos parte. Como grupo fuimos fortaleci�ndonos , a la par fuimos gestionando los recursos al estado, para poder concretar nuestra experiencia. A pasos de concretar, nos encuentra orgulloso de ser parte de este sue�o colectivo. Contexte Vivimos en una ciudad y en un pa�s, donde la vivienda se ha convertido en una MERCANC�A muy cara para los sectores populares. Ante la imposibilidad de poder acceder a una vivienda digna en la ciudad, nos propusimos intentar concretar un proyecto colectivo, a un problema que entendemos que es colectivo. Nuestra cuidad esta atravesada por una l�gica especulativa muy fuerte, mientras 50 mil familias necesitan un techo, existen 80 mil viviendas vac�as.En instancias de asambleas hemos decidido todo, desde los par�metros del proyecto arquitect�nico, hasta las propuestas de capacitaci�n para pensar conceptos propios de sustantividad. Trabajamos en comisiones ( finanzas, gesti�n, financiaci�n t�cnica ,socio-comunitaria) y apostamos a crear un proyecto que contemple el Derecho a la belleza�� Al concepto de sustantividad lo estamos haciendo propio analizando, a trav�s de talleres espec�ficos, para dise�ar los conceptos que aplicaremos en nuestras viviendas. Trabajamos las tem�ticas de basura, movilidad, y energ�a.",www.moi.org,petroniando@gmail.com,,
Youth-led Co-ops,Doce Vale Coop,Cooperativa de m�ltiples actores,Americas,Brasil,Porto Alegre,-30.0346471,-51.2176584,0-5,Cooperativa de m�ltiples actores,Housing,"AV. OTTO NIEMEYER, 2595 - SALA 206 - CAVALHADA CEP 91910-200 - PORTO ALEGRE - RS - BRASIL",Cooperativa habitacional.,CONSTR�I PRINCIPALMENTE COM RECURSOS DE PROGRAMAS SOCIAIS DO GOVERNO FEDERAL,https://www.facebook.com/pages/category/Real-Estate/DOCE-VALE-COOP-342798703197372/,n/a,,
Youth-led Co-ops,Casas Pasivas,Cooperativa de trabajo y empleo,Americas,Uruguay,Montevideo,-34.9011127,-56.1645314,0-5,Cooperativa de trabajo y empleo,Housing,"18 de Julio, c/o CudeCoop, Montevideo, Uruguay",Eficiencia energ�tica para viviendas.,,http://www.cudecoop.coop/cudecoop/cudecoop/,n/a,,
Youth-led Co-ops,Active Vision,Incubator,Africa,Democratic Republic of Congo,Bukavu,-2.5123017,28.8480284,0-5,Coop�rative pluri-acteurs,Incubator,n/a,Active Vision est une organisation de jeunes entrepreneurs congolais qui r�vent d'une nouvelle g�n�ration congolaise riche et prosp�re survivante des moments difficiles que connait notre pays.,"Active Vision a pour mission d'accompagner chaque jeune, en priorit� ceux qui n'ont pas eu la chance d'achever leur parcours scolaire, � transformer sa vision en entreprise active. Et cette mission est mat�rialis�e principalement par la formation entrepreneuriale et le conseil en gestion. Nous organisons �galement des �v�nements pour la promotion de l'entrepreneuriat.",https://www.facebook.com/pg/Active-Vision-160510764566437/about/,activevsn@gmail.com,,
Youth-led Co-ops,Conseil qu�b�cois de la coop�ration et de la mutualit�,Incubator,Americas,Canada,"Levis, Quebec",46.7382265,-71.2464591,6-20,Coop�rative pluri-acteurs,Incubator,"5955 rue Saint-Laurent, Levis, QC, Canada G6V 3P5","Le CQCM travaille � la concertation, la repr�sentation et le d�veloppement des 3 000 coop�ratives et mutuelles qu�b�coises et met en �uvre un programme d��ducation et de mobilisation des jeunes dans toute la province, gr�ce � un appui du gouvernement provincial du Secr�tariat � la jeunesse.",,www.cqcm.coop,info@cqcm.coop,,
Youth-led Co-ops,KnowledgeWorker,Incubator,Europe,Denmark,Copenhagen,55.6760968,12.5683372,6-20,Multi-stakeholder cooperative,Incubator,"Pustervig 4, 1126 K�benhavn, Denmark","KnowledgeWorker wants to realise the economic growth potential in small and medium enterprises (SME) that lack the sufficient academic and practical know how or the financial foundation to expand their business. We transform ideas into sustainable businesses in the intersection between business sense, academic insight and economic results. Through this KnowledgeWorker wants to create growth in businesses and create jobs in society.",,https://www.knowledgeworker.dk,info@knowledgeworker.dk,,
Youth-led Co-ops,Junior Achivement Eswatini,Incubator,Africa,Swaziland,Manzini,-26.5081999,31.3713164,51-100,Work and employment cooperative,Incubator,"MITC Campus. St. Michaels Road PO Box 2187, Manzini, Kingdom of Swaziland",There are 40 inschool cooperatives that have been established for purposes of helping students practice the principles of financial literacy. There are also out of school youth cooperatives which have been established,These are inschool cooperatives that JA Eswatini has established in 40 schools all over the country.,http://www.jaswaziland.org/index.html,info@jaswaziland.org,,
Youth-led Co-ops,Cooperativa Nacional Produccion y Trabajo de Tecnicos a Domicilio,Cooperativa de producci�n,Americas,Dominican Republic,Santo Domingo,18.4860575,-69.9312117,6-20,Cooperativa de producci�n,Industry/Manufacturing,"Ave. Mexico esq. 30 de marzo, Santo Domingo, Dominican Republic","Es una cooperativa que integra jovenes tecnicos en Herreria tradicional y artistica, pero esta contemplada para integrar otras areas tecnicas como electricistas, plomeros, refrigeracion etc. Estos jovenes son jovene miembros de familias de escasos recursos que buscamos generar fuente de empleos.",Actualmente los socios y socias son tecnicos en herreria y trabajan a la vez artesania usando como materia prima el hierra.,https://www.facebook.com/Coopnatedo/,coopnatedo@hotmail.com,,
Youth-led Co-ops,Co-operative Insurance Company,Insurance,Africa,Kenya,Nairobi,-1.2920659,36.8219462,100+,Work and employment cooperative,Insurance,"CIC Group, CIC Plaza, Mara Road, Upperhill Nairobi, Kenya P O Box 59485-00200",Provision of insurance services,"Our Values"," -Integrity, -Dynamism, -Perfomance, -Cooperation",www.cic.co.ke,callc@cic.co.ke,
Youth-led Co-ops,Lama,Management Consulting,Europe,Italy,Firenze,43.7695604,11.2558136,6-20,Cooperativa di lavoro,Management Consulting,"Via Panciatichi 10-14, 50127, Firenze, Italia","LAMA is a consulting company that designs and realizes solutions to tackle change successfully. Since 2007, LAMA assists businesses, public institutions and not for profit organisations in the innovation of strategies, operations and management processes, in response to the increasing complex and challenging scenario of present times.",,www.agenzialama.eu,Info@agenzialama.eu,,
Youth-led Co-ops,COOPEM Ltda ESRN N57,Cooperativa de m�ltiples actores,Americas,Argentina,Maquinchao,-41.2485581,-68.7019736,0-5,Cooperativa de m�ltiples actores,Multi-purpose,"Av Independencia s/n. Maquinchao, CP 8422. RN Argentina","Es una cooperativa de j�venes estudiantes que funciona hace 13 a�os. Es una propuesta de adhesi�n voluntaria ya que se desarrolla en contraturno escolar, fines de semana ...en vacaciones.",Se inici� con el prop�sito de abaratar los costos de los �tiles escolares a los alumnos. Y a eso le hemos ido sumando otras actividades como la elaboraci�n de productos regionales tales como escabeches y dulces. Entre otras actividades que realizamos.,n/a,zulmaburgos@gmail.com,,
Youth-led Co-ops,CJS Bohain,Multi-purpose,Europe,France,Bohain,49.986989,3.454714,0-5,Coop�rative de travailleur.se.s,Multi-purpose,"14, rue de la R�publique, Bohain, France",Prestations de service � particuliers et entreprises,,n/a,cjsbohain@gmail.com,,
Youth-led Co-ops,ESS'pace,Multi-purpose,Europe,France,Paris,48.856614,2.3522219,6-20,Coop�rative pluri-acteurs,Multi-purpose,"15 rue Jean-Antoine de Ba�f 75013 Paris, France",ESS'pace est un tiers-lieu compos� de deux principaux espaces et activit�s : un espace de coworking qui accueille des porteurs de projets �tudiant.es dans l'�conomie sociale et des entrepreneur.ses coop�ratives "," un bar-restaurant accueillant �tudiant.es et habitant.es du quartier et de nombreuses animations.,,https://www.esspace.coop/,contact@esspace.coop,
Youth-led Co-ops,Green Campus Co-operatives,Multi-purpose,Americas,Canada,Toronto,43.653226,-79.3831843,0-5,Final consumer/user cooperative,Multi-purpose,"York University, 4700 Keele St, North Ross 142, Toronto, Ontario, Canada, M3J 1P3","The Green Campus Co-operative is a nonprofit campus co-operative incubator that retains (at least partial) ownership of it's ventures. We currently have two partner ventures: The et al Faculty and Graduate Student Cafe & Pub Green Campus Cotton These ventures are designed to address specific sets of social and environmental industry-rooted problems that require a commercial, civil society and research approach when developing market-based solutions. We are governed by students and faculty that democratically advise our strategy, research our value chains and explore social entrepreneurship through experiential learning.",,www.greencampuscoops.com,info@greencampuscoops.com,,
Youth-led Co-ops,Coop2u,Multi-purpose,Asia-Pacific,Malaysia,Kuala Lumpur,3.139003,101.686855,0-5,Final consumer/user cooperative,Multi-purpose,"No. 6 Jalan 13/48a Sentulraya Boulevard, 51000 Kuala Lumpur, Malaysia",A consumer coop that supplies consumer electronics products to coop members,Also involved in Web and app development,http://www.youth-asiapacific.coop,Info@coo2u.com,,
Youth-led Co-ops,"Koperasi ""Kopma UGM""",Multi-purpose,Asia-Pacific,Indonesia,"Sleman, Yogyakarta",-7.7325213,110.402376,51-100,Final consumer/user cooperative,Multi-purpose,"Universitas Gadjah Mada, Bulaksumur, Depok, Sleman, Yogyakarta, Indonesia","Kopma UGM is one of student activities in Universitas Gadjah Mada and legaly listed in cooperative ministry. it has several business divition such us supermarket, cafetaria canteen, expedition, and convection. business activities profit is to fasilitate member activities. all member will get three main education of cooperative and also there are some activities related to young activities such us sport, public speacking, trainning activities, and so on.",kopma ugm has it aplication web named Aciko. from Aciko someone can looking the infomation like the agenda (for non member just can see that information) but to all members they can see their saving and their point from their activities,kopma.ugm.ac.id,info@kopma-ugm.net,,
Youth-led Co-ops,Student Cooperative Society,Multi-purpose,Africa,Nigeria,Awka,6.2220043,7.0821162,6-20,Final consumer/user cooperative,Multi-purpose,"Nnamdi Azikwe University, Awka Anambra State, Nigeria",It is a consumer cooperative society.,,n/a,n/a,,
Youth-led Co-ops,KOSAKTI,Multi-purpose,Asia-Pacific,Indonesia,Jakarta,-6.2087634,106.845599,0-5,Multi-stakeholder cooperative,Multi-purpose,"Jl. Otista Raya No.390, RT.6/RW.12, Kp. Melayu, Jatinegara, Kota Jakarta Timur, Daerah Khusus Ibukota Jakarta 13330, Indonesia",Business provider cooperative - a general platform for businesses with cooperative model/value.,"Our cooperative focus on incubating and providing needs for feasible yet unbankable businesses, especially one with social impact.",kosakti.id,berkoperasi@kosakti.id,,
Youth-led Co-ops,Student Cooperative of Gadjah Mada University,Multi-purpose,Asia-Pacific,Indonesia,Sleman,-7.7325213,110.402376,100+,Multi-stakeholder cooperative,Multi-purpose,Bulaksumus H-7 & H-8 Depok Sleman Yogyakarta 55281,"This undertakes many activities, such as a minimarket, cafeteria, courier, etc.",,Kopma.ugm.ac.id,bpricilla99@gmail.com,,
Youth-led Co-ops,NEWS Multipurpose Cooperative,Multi-purpose,Asia-Pacific,Philippines,"San Jose, Dinagat Islands",10.0254969,125.5986093,100+,Multi-stakeholder cooperative,Multi-purpose,"P-6 Poblacion, San Jose, Province of Dinagat Islands (8427), Philippines","A multi-purpose cooperative that offers loans, transportation services, cable tv, supplies and ticketing.",,n/a,n/a,,
Youth-led Co-ops,"Pedi Help & Cleaning, Pedi Solution, and Ada Ide Creative Studio",Multi-purpose,Asia-Pacific,Indonesia,Purwokerto,-7.4242782,109.2396366,0-5,Work and employment cooperative,Multi-purpose,"Jl. HR. Boenyamin No. 16-17 Bancarkembar Purwokerto Utara Kab Banyumas, Indonesia","My coop helps creative youth to develop coop businesses. These include, Pedi Help provides cleaning and other helping services. Pedi Solution is an Andriod based market place. Ada Ide Creative Studio works in the creative sector: deisgn graphic, software engineering, video making etc.",,Pedi.id,n/a,,
Youth-led Co-ops,Cooperativa Juvenil los Criollos,Cooperativa de m�ltiples actores,Americas,Puerto Rico,Caguas,18.2387995,-66.035249,0-5,Cooperativa de m�ltiples actores,Multi-purpose,Calle Juan morales final urb valle Tolima Caguas Puerto Rico 00725,"Cooperativa de servicios m�ltiples la cual intita satisfacer las necesidades, de la comunidad escolar.",,https://www.facebook.com/Cooploscriollos/,michaelacxer@gmail.com,,
Youth-led Co-ops,Spidsroden ApS,Retail,Europe,Denmark,Copenhagen,55.6760968,12.5683372,6-20,Work and employment cooperative,Retail,n/a,Small organic shop owned equally by six members in our cooperative. We run the shop together and make all decisions together.,,www.spidsroden.dk,butik@spidsroden.dk,,
Youth-led Co-ops,Cooperativa de Trabajo AIP Mart�n G�emes Ltda.,Cooperativa de trabajo y empleo,Americas,Argentina,C�rdoba Capital,-31.4200833,-64.1887761,100+,Cooperativa de trabajo y empleo,Security Services,"Uriarte 1265, CP 1414, Ciudad Aut�noma de Buenos Aires, Argentina","La Cooperativa de Trabajo Mart�n G�emes Ltda. es una entidad con casi 50 a�os de antig�edad. Presta servicios de vigilancia y seguridad a la comunidad. Los asociados de la entidad, prestan su aporte personal de trabajo como vigiladores de predios, f�bricas, centros comerciales, complejos de viviendas, etc.","Est� compuesta por 160 miembros aproximadamente, la mayor�a de ellosprovenientes de sectores sociales humildes, habiendo completado la mayor�a de ellos, �nicamente, la educaci�n b�sica obligatoria (Educaci�n secundaria).",http://www.coopmartinguemes.com/,jonigomezder@gmail.com,,
Youth-led Co-ops,Demoela Soc Soop,Social,Europe,Italy,Genova,44.4056499,8.946256,0-5,Cooperativa di lavoro,Social,"Viale franchini 24/2 16167 GE, Genova, Italy","This is a cooperative based on two combined passions: on one hand the interest for games, on the other the attention to social and cultural needs. Alberto, Luigi and Pietro, the 3 founders, are friends since 20 years and propose games and gaming as strong tools for healthy and sustainable interactions, in order to promote strong social messages.","This is a ooperative based on two combined passions: on one hand an interest in games, on the other the attention to social and cultural needs. Alberto, Luigi and Pietro, the 3 founders, are friends for 20 years and propose games and gaming as strong tools for healthy and sustainable interactions, in order to promote strong social messages.",www.demoela.com,info@demoela.com,,
Youth-led Co-ops,"FAJNA Sp�?dzielnia Socjalna, Instytut Innowatyki, Fundacja Wielopokoleniowa",Social,Europe,Poland,Katowice,50.2648919,19.0237815,6-20,Work and employment cooperative,Social,ul. Warszawska 36 / p. I,A social enterprise that activates people with disabilities.,the cooperative is open to the implementation of transnational projects for the activation of young people,http://www.fajna.eu/,fajna@fajna.eu,,
Youth-led Co-ops,Cooperative d'energie de la vision (COENEVI),Social,Africa,Rawanda,Nyanza District,-2.2398377,29.742604,6-20,Work and employment cooperative,Social,n/a,"Cooperative d'energie de la vision (COENEVI) is located in the southern region of Rawanda, in the Nyanza District. We aim to achieve social mobilization through theatre and also agriculture, in collaboration with institution such as The Society for Family Health (SFH/Rwanda) Umurage Communication for Development (UMC), and the Ministry of Youth. These institutions support our activities, for instance in the areas of mobile family planning, HIV prevention, and malaria prevention. We are registered nationally.","Cooperative d'Energie de la Vision has organized more Event and we have a proof such as narratif report Including pictures, office located at that was talk about before and finance report.",n/a,coop.coenevi@gmail.com,,
Youth-led Co-ops,Coopeasued R.L,Cooperativa de m�ltiples actores,Americas,Costa Rica,Palmares,10.060727,-84.4378495,0-5,Cooperativa de m�ltiples actores,Training & Education,"20701 Palmares, Costa Rica","Cooperativa de estudiantes. Proyecto productivo: ahorro, servicio de fotocopiado, venta de libros, librer�a y uniformes de la instituci�n.",Su principal objetivo es la educaci�n cooperativa.,n/a,Coopeasued@lebpalmares.ed.cr,,
Youth-led Co-ops,COOPETECS RL,Cooperativa de m�ltiples actores,Americas,Costa Rica,Heredia,9.9981413,-84.1197643,0-5,Cooperativa de m�ltiples actores,Training & Education,"Costa Rica Heredia, Flores San Joaqu�n 200 norte de la Ciudad Judicial",Cooperativa estudiantil que promueve en ahorro y la pr�ctica de principios cooperativos y emprendedores en estudiantes se secundaria.,"Nuestra cooperativa pertenece a la comunidad educativa del Colegio T�cnico Profesional de Flores, promueve el ahorro, la vivencia de principios y valores cooperativos ya que los estudiantes son los responsables de liderar proyectos educativos y productivos.",n/a,coopetecs@hotmail.com,,
Youth-led Co-ops,COOPEAT - Cooperativa Escolar de Aprendizagem Teut�nia,Cooperativa de m�ltiples actores,Americas,Brasil,Teut�nia,-29.4716222,-51.8167696,21-50,Cooperativa de m�ltiples actores,Training & Education,"Rua Asido Dreyer, 154 - Teut�nia - RS CEP: 95890-000 Brasil","A cooperativa escolar � uma associa��o de estudantes com finalidade educativa, podendo desenvolver atividades econ�micas, sociais e culturais em benef�cio dos associados. Em sua ess�ncia, buscam formular uma proposta pedag�gica com a participa��o do corpo discente em atividades pr�ticas. Todo o trabalho e tempo dedicado ao projeto englobam atividades que promovam a liberdade, a coopera��o, o saber e o fazer. � imperativo pratic�-los como modo de vida no exerc�cio da lideran�a, da solidariedade, da simplicidade, da sinceridade e, quando necess�rio, em mudan�as de atitudes, constituindo assim um laborat�rio de aprendizagem.","A COOPEAT tem como objetos de aprendizagem a produ��o de hortali�as, morango sem agrot�xico, balas de mel com gengibre, rapaduras e trufas de chocolate. Todos os associados est�o ligados a cooperativa atrav�s do curso de aprendizagem denominado ""Aprendiz Cooperativo do Campo"". Dessa forma, alia-se o conhecimento adquirido nas aulas te�ricas e aplicando-o na cooperativa escolar como laborat�rio de aprendizagem na pr�tica.",http://www.colegioteutonia.com.br/ct-e-voce/,aprendizesct@colegioteutonia.com.br,,
Youth-led Co-ops,PROCOOP RL,Cooperativa de m�ltiples actores,Americas,Costa Rica,San Jos�,9.9280694,-84.0907246,21-50,Cooperativa de m�ltiples actores,Training & Education,"Ofibodegas Barrial De Heredia De la Zona Franca Metropolitana 2km al noreste, Heredia Barreal, San Jos� Costa Rica","PROCOOP R.L. es una cooperativa que tiene como objetivo desarrollar servicios profesionales de asesor�a, capacitaci�n y formaci�n eficaz enfocados en cubrir las necesidades de las organizaciones en temas de desarrollo humano y cooperativismo, mediante un trabajo multidisciplinario integral.","PROCOOP R.L. ofrece un servicio capacitado, interdisciplinario e integral para cubrir necesidades de capacitaci�n, asesor�a y formaci�n por parte de cooperativas, empresas privadas y p�blico en general.",procoop.com,info@procooprl.com,,
Youth-led Co-ops,Trabajo en Cooperativa La Ganadera de General Ram�rez Limitada,Cooperativa de producci�n,Americas,Argentina,General Ramirez,-32.1748778,-60.1989312,100+,Cooperativa de producci�n,Training & Education,"3164 General Ramirez, Argentina","EVOLUCI�N E INVERSIONES El primer local de Remates Feria data del a�o 1.953, cuando la Asamblea de fecha 2 de febrero de 1.953 autoriza al Consejo de Administraci�n la adquisici�n de 15 hect�reas de campo sobre camino Ramirez-Diamante, distante a pocos metros de la ciudad. All� el d�a 9 de Abril de 1.953 se realiza el primer remate de hacienda, fecha que se conmemora anualmente como ""Remate Aniversario"". Posteriormente se adquieren terrenos en Don Crist�bal (Dpto. Nogoy�) y Costa Grande (Dpto. Diamante) con destino a Feria de Remates, en estos d�as �sta �ltima se mantiene utiliz�ndola para pesajes de control por los asociados y clientes de la entidad. El 22 de Abril de 1.971 se inauguran las actuales instalaciones de remates generales en Gral. Ramirez, reemplazando al emplazamiento efectuado en Isletas, en esos d�as ya se hab�a terminado la Ruta Nacional N� 12, pavimentada, tramo Paran�-Nogoy�. Se realizaban remates de reproductores y Concurso de Novillos Gordos. Los asociados de la cooperativa aprobaron el 2 de septiembre de 1.980 la compra de una Planta de Silos ubicada en la calle Republica de Entre R�os N� 492 -calle de ingreso principal a la ciudad, inici�ndose all� el acopio de cereales y oleaginosas, su comercializaci�n y posteriormente la cobertura de distintos servicios relacionados con este sector. Asoci�ndose con otras cooperativas se constituye la sociedad Molino Harinero de Ramirez S.A. dedicado a la molienda de trigo para harina y subproductos. Se incorpora al patrimonio una Planta de Silos cercana al Molino Harinero de 4.000 toneladas aproximadamente, en calle Libertad y Moreno. El d�a 8 de noviembre de 1.996 se inaugura en el paraje Tres Esquinas del Departamento Victoria (Entre R�os) otra Planta de Silos de 12.000 toneladas de capacidad. Posteriormente en Julio de 1.998 se inicia la construcci�n de la Planta de Silos (Planta 4) de 24.200 toneladas iniciales de capacidad, en el predio anexo a Feria de Remates de Hacienda en Gral. Ramirez -sobre Ruta Nacional N� 12-, que posteriormente se ampl�a en 10.000 toneladas. Se adquiere el predio de la Feria de Remates de la ex Cooperativa La Entrerriana de Nogoy� Limitada. En el predio de Planta 4, dando cumplimiento a disposiciones de una Ordenanza Municipal, se construye un galp�n para Agroqu�micos y Semillas fuera del radio urbano, se instalan tanques dep�sitos de gasoil (agrom�vil) en las distintas Plantas de Silos. Se realizan remates de hacienda en pie en Nogoy�, Gral. Ramirez y Maria Grande (instalaciones de Sociedad Rural de Maria Grande). En intersecci�n de las Rutas Nacional N� 18 y Provincial 32, zona de Viale se instala otra Planta de Silos de 4.000 toneladas. Adem�s de contar con pulverizadoras autopropulsadas con el asesoramiento profesional correspondiente, se incorporan tres camiones para el transportes generales para uso propio y teceros. Otra de las necesidades de los productores ganaderos se hace realidad: con la provisi�n de productos y servicios veterinarios a partir del mes de Febrero de 2.005.","El grupo de j�venes que forma parte de la cooperativa se constituy� hace m�s de 30 a�os, se realizan actividades desde ese entonces a la fecha de manera ininterrumpida. En octubre de 2017 se comenz� a trabajar con otro segmento de j�venes, que han pasado por este primer grupo y que hoy se est�n iniciando en sus producciones y contin�an con el legado de sus padres.",http://laganadera.com.ar,jac@laganadera.com.ar,,
Youth-led Co-ops,Coop�rative simplifi�e pour l'�ducation en Afrique(SCOOPS-EDUC),Training & Education,Africa,Cameroun,Yaound�,3.8480325,11.5020752,0-5,Coop�rative pluri-acteurs,Training & Education,"S/C B.P: 11721 Yaound�, Cameroun",Le lien commun de notre coop est l'�ducation et la formation pour rehausser la performance des entreprises coop�ratives et vulgariser davantage les principes coop�ratifs universels aux jeunes en insistant sur l'�ducation financi�re.,Nous travaillons dans les �tablissements scolaires en cr�ant des clubs coop comme cadre d'expression et d'�panouissement des jeunes afin qu'il contribuent au changement de leur environnement.,n/a,scoopseduc@gmail.com,,
Youth-led Co-ops,OneAfricanChild Foundation for Creative Learning,Training and eduction,Africa,Nigeria,Lagos,6.5243793,3.3792057,0-5,Multi-stakeholder cooperative,Training and eduction,"208 Oshodi-Apapa Expressway, Itire, Lagos, Nigeria","OneAfricanChild Foundation for Creative Learning (OAC) is a youth-led organisation working to transform the lives of economically disadvantaged children through activity-based workshops, advocacy and empowerment programs centred on education for sustainable development and global citizenship. We work with in and out-of-school children between 5-18 years to prepare them for leadership roles through our after-school programs. Our program create spaces for self expression, critical thinking and problem solving, and encourages learners to take on initiatives that bring about social change. Since 2013, the OneAfricanChild Foundation has empowered thousands of children and teachers with the knowledge, skills, values and experiences that enables them to contribute to a more peaceful and sustainable future.",,www.oneafricanchild.org,Info@oneafricanchild.org,,
Youth-led Co-ops,TAZEBAEZ SCOOP,Training and eduction,Europe,Spain,Bilbao,43.2630126,-2.9349852,21-50,Work and employment cooperative,Training and eduction,"Uribitarte 6, Bilboa, Spain","It's an innovation group. In the colsultancy area, that we call INNPulsory, it operates in four fields of expertise: - Visual communication - Experience, space and product design - Education and training (combined with technology) - Business development . We have our own accelerator that is called INNkubo. Where every worker of TAZEBAEZ has the chance to propose new ideas and go through a research process to start launching new initiatives. Once the initiative is working there si the ADDventures area that hosts, as an umbrella under TAZEBAEZ all the brands that are already successful, have their own team and working path and that can be considered ""independent"".",,www.tzbz.coop ", www.makeitvisual.es ," www.polimaker.com,
Youth-led Co-ops,The Ghana Youth Cooperative Group,Training and eduction,Africa,Ghana,Takoradi,4.9015794,-1.7830973,6-20,Work and employment cooperative,Training and eduction,n/a,A business and employment youth cooperative that mobilizes youth to create business and employment for themselves within a collective and secured framework.,,fb.com/TGYCGroup,tgycgroup@gmail.com,,
Youth-led Co-ops,Manzomeye barg-e-noo research cooperatives,Training and eduction,Asia-Pacific,Iran,Tehran,35.6891975,51.3889736,6-20,Work and employment cooperative,Training and eduction,n/a,"Barg-e-Noo is an affiliate cooperative of Rah-e-Roshd and aims to empower itself in education and research arenas. Still, it observes two things as its main goals: Promotion of cooperatives through research to identify breeding grounds for coops to synergize those who can make best use of them, notably through network creation. Education at macro-social levels and cooperation with educational institutions.",,n/a,bargenoo.researchcooperative@gmail.com,,
Youth-led Co-ops,Youth Deal Cooperative,Training and eduction,Europe,Turkey,Izmir,38.423734,27.142826,6-20,Work and employment cooperative,Training and eduction,n/a,"Youth Deal Co-op is Turkey's first youth-led non-profit R&D and training co-operative founded in Feb. 2015 in Izmir. The co-op seeks to improve the access of youth and disadvantaged groups to employment, livelihoods and socio-economic rights. The co-op is the driving force behind Turkey's Social Cooperatives' Solidarity Network and Cooperators beyond Borders Network.","Our core business is co-op development, training, consultancy and advocacy. Our services are provided to those excluded from employment and livelihoods. We respond to these needs by creating �enabling environments� for coops. Our strengths are grassroots-mobilization by training and international cooperation.",https://www.gencisi.org,iletisim@gencisi.org,,
Youth-led Co-ops,Central Nacional das Cooperativas de Transporte de Cargas e Passageiros - Rede Tranporte,Transportation,Americas,Brasil,Arroio do Meio,-29.3964309,-51.9484066,0-5,Multi-stakeholder cooperative,Transportation,"RS 130, KM 76 n 1952, Bairro Barra do Forqueta, Arroio do Meio, Brasil","Founded on January 25, 2011, our main objective is to organize and manage, in a centralized way, the acquisition of all kinds of goods and services of interest to the cooperatives that make up our membership and their respective members.",,www.redetransprote.com.br,aline.possamai@redetransporte.com.br,,
Youth-led Co-ops,Alter&Coop,Utilities,Europe,France,Lons le Saunier,46.671361,5.550796,0-5,Coop�rative pluri-acteurs,Utilities,"6 avenue Henri Grenat, Lons le Saunier, France","Alter&Coop �volue dans l'am�lioration du b�timent, du point de vue technique et technologique, en efficacit� �nerg�tique, domotique et solaire photovolta�que.","Soci�t� coop�rative du Jura, nous concevons et r�alisons l'int�gration de solutions d'efficacit� �nerg�tique par la domotique et gestion active du b�timent, le photovolta�que et le num�rique.",Alterecoop.fr,contact@alterecoop.fr,,
